{
  "norad_id": 56926,
  "name": "STARLINK-5746",
  "history": [
    {
      "epoch": "2026-05-04T16:42:07.646976Z",
      "apogee_km": 483.98217478809056,
      "perigee_km": 482.1186762833149,
      "latitude_deg": 1.0633214485632327e-05,
      "longitude_deg": 1.2637919831092492,
      "height_km": 482.7313855632592,
      "semi_major_axis_km": 6861.1874255357025,
      "eccentricity": 0.0001358,
      "inclination_deg": 43.0034,
      "raan_deg": 114.3772,
      "arg_perigee_deg": 275.9195,
      "mean_anomaly_deg": 84.1502,
      "mean_motion_rev_day": 15.27579556
    },
    {
      "epoch": "2026-05-04T22:58:44.840352Z",
      "apogee_km": 484.15442090602664,
      "perigee_km": 481.92838018575276,
      "latitude_deg": -3.363238156225861e-05,
      "longitude_deg": -94.62561570668109,
      "height_km": 482.62768375143963,
      "semi_major_axis_km": 6861.178400545889,
      "eccentricity": 0.00016222,
      "inclination_deg": 43.0039,
      "raan_deg": 112.9006,
      "arg_perigee_deg": 279.8835,
      "mean_anomaly_deg": 80.1833,
      "mean_motion_rev_day": 15.2758257
    },
    {
      "epoch": "2026-05-06T09:30:11.951424Z",
      "apogee_km": 484.404334616278,
      "perigee_km": 481.72970006623655,
      "latitude_deg": -3.082987976271824e-05,
      "longitude_deg": 97.96916055426279,
      "height_km": 482.7091605130667,
      "semi_major_axis_km": 6861.204017341257,
      "eccentricity": 0.00019491,
      "inclination_deg": 43.0051,
      "raan_deg": 104.7762,
      "arg_perigee_deg": 275.8186,
      "mean_anomaly_deg": 84.2443,
      "mean_motion_rev_day": 15.27574015
    },
    {
      "epoch": "2026-05-07T09:02:33.251136Z",
      "apogee_km": 484.0939864893053,
      "perigee_km": 482.05483445811296,
      "latitude_deg": 9.11058407567466e-06,
      "longitude_deg": 98.37402809144541,
      "height_km": 482.9279586188394,
      "semi_major_axis_km": 6861.211410473709,
      "eccentricity": 0.0001486,
      "inclination_deg": 43.0041,
      "raan_deg": 99.2365,
      "arg_perigee_deg": 265.7064,
      "mean_anomaly_deg": 94.3618,
      "mean_motion_rev_day": 15.27571546
    },
    {
      "epoch": "2026-05-08T14:51:31.154976Z",
      "apogee_km": 484.4058094735992,
      "perigee_km": 481.7710988991912,
      "latitude_deg": -4.1218527547651834e-05,
      "longitude_deg": 2.89390145468518,
      "height_km": 482.56120151703715,
      "semi_major_axis_km": 6861.225454186395,
      "eccentricity": 0.000192,
      "inclination_deg": 43.0064,
      "raan_deg": 92.2222,
      "arg_perigee_deg": 283.3908,
      "mean_anomaly_deg": 76.6729,
      "mean_motion_rev_day": 15.27566856
    },
    {
      "epoch": "2026-05-08T22:42:18.458208Z",
      "apogee_km": 484.35594880983444,
      "perigee_km": 481.81468928730555,
      "latitude_deg": 2.6861635840469953e-05,
      "longitude_deg": -116.9740668801438,
      "height_km": 482.8178743216377,
      "semi_major_axis_km": 6861.222319048569,
      "eccentricity": 0.00018519,
      "inclination_deg": 43.0065,
      "raan_deg": 90.3735,
      "arg_perigee_deg": 272.0402,
      "mean_anomaly_deg": 88.0238,
      "mean_motion_rev_day": 15.27567903
    }
  ]
}